[{"OBJECT_NAME":"REAL","OBJECT_ID":"2025-154G","EPOCH":"2026-03-09T17:20:09.670560","MEAN_MOTION":15.28408058,"ECCENTRICITY":0.00018528,"INCLINATION":97.4133,"RA_OF_ASC_NODE":137.2581,"ARG_OF_PERICENTER":118.5876,"MEAN_ANOMALY":241.555,"EPHEMERIS_TYPE":0,"CLASSIFICATION_TYPE":"U","NORAD_CAT_ID":64875,"ELEMENT_SET_NO":999,"REV_AT_EPOCH":3483,"BSTAR":0.0008290401,"MEAN_MOTION_DOT":0.00022901,"MEAN_MOTION_DDOT":0},{"OBJECT_NAME":"STARLINK-36422","OBJECT_ID":"2026-003L","EPOCH":"2026-03-09T11:16:21.310176","MEAN_MOTION":15.27586691,"ECCENTRICITY":0.000164,"INCLINATION":43.0012,"RA_OF_ASC_NODE":228.0069,"ARG_OF_PERICENTER":256.6879,"MEAN_ANOMALY":103.379,"EPHEMERIS_TYPE":0,"CLASSIFICATION_TYPE":"U","NORAD_CAT_ID":67344,"ELEMENT_SET_NO":999,"REV_AT_EPOCH":879,"BSTAR":0.0011655825,"MEAN_MOTION_DOT":0.00031958,"MEAN_MOTION_DDOT":0}]
